[{"OBJECT_NAME":"ONEWEB-0527","OBJECT_ID":"2022-166A","EPOCH":"2025-11-21T11:02:04.889184","MEAN_MOTION":13.21825967,"ECCENTRICITY":0.0001931,"INCLINATION":87.9192,"RA_OF_ASC_NODE":285.4347,"ARG_OF_PERICENTER":81.2426,"MEAN_ANOMALY":278.8926,"EPHEMERIS_TYPE":0,"CLASSIFICATION_TYPE":"U","NORAD_CAT_ID":54642,"ELEMENT_SET_NO":999,"REV_AT_EPOCH":14409,"BSTAR":9.6694e-5,"MEAN_MOTION_DOT":5.3e-7,"MEAN_MOTION_DDOT":0},{"OBJECT_NAME":"ONEWEB-0528","OBJECT_ID":"2022-166B","EPOCH":"2025-11-21T09:22:35.039712","MEAN_MOTION":13.21826634,"ECCENTRICITY":0.0001976,"INCLINATION":87.9194,"RA_OF_ASC_NODE":285.4523,"ARG_OF_PERICENTER":81.5171,"MEAN_ANOMALY":278.6187,"EPHEMERIS_TYPE":0,"CLASSIFICATION_TYPE":"U","NORAD_CAT_ID":54643,"ELEMENT_SET_NO":999,"REV_AT_EPOCH":14409,"BSTAR":1.4611e-5,"MEAN_MOTION_DOT":1.9e-7,"MEAN_MOTION_DDOT":0},{"OBJECT_NAME":"ONEWEB-0539","OBJECT_ID":"2022-166C","EPOCH":"2025-11-21T10:17:03.715008","MEAN_MOTION":13.21824617,"ECCENTRICITY":0.0001907,"INCLINATION":87.919,"RA_OF_ASC_NODE":285.4106,"ARG_OF_PERICENTER":88.4933,"MEAN_ANOMALY":271.6419,"EPHEMERIS_TYPE":0,"CLASSIFICATION_TYPE":"U","NORAD_CAT_ID":54644,"ELEMENT_SET_NO":999,"REV_AT_EPOCH":14409,"BSTAR":1.1038e-6,"MEAN_MOTION_DOT":1.3e-7,"MEAN_MOTION_DDOT":0},{"OBJECT_NAME":"ONEWEB-0540","OBJECT_ID":"2022-166D","EPOCH":"2025-11-21T10:26:44.055168","MEAN_MOTION":13.21827748,"ECCENTRICITY":0.0001858,"INCLINATION":87.9189,"RA_OF_ASC_NODE":285.4475,"ARG_OF_PERICENTER":88.5496,"MEAN_ANOMALY":271.5851,"EPHEMERIS_TYPE":0,"CLASSIFICATION_TYPE":"U","NORAD_CAT_ID":54645,"ELEMENT_SET_NO":999,"REV_AT_EPOCH":14408,"BSTAR":-6.6803e-5,"MEAN_MOTION_DOT":-1.5e-7,"MEAN_MOTION_DDOT":0},{"OBJECT_NAME":"ONEWEB-0542","OBJECT_ID":"2022-166E","EPOCH":"2025-11-21T10:31:16.933152","MEAN_MOTION":13.21828226,"ECCENTRICITY":0.0001726,"INCLINATION":87.9188,"RA_OF_ASC_NODE":285.4057,"ARG_OF_PERICENTER":93.4058,"MEAN_ANOMALY":266.7273,"EPHEMERIS_TYPE":0,"CLASSIFICATION_TYPE":"U","NORAD_CAT_ID":54646,"ELEMENT_SET_NO":999,"REV_AT_EPOCH":14409,"BSTAR":-8.1127e-5,"MEAN_MOTION_DOT":-2.0e-7,"MEAN_MOTION_DDOT":0},{"OBJECT_NAME":"ONEWEB-0545","OBJECT_ID":"2022-166F","EPOCH":"2025-11-21T09:41:31.172064","MEAN_MOTION":13.21827973,"ECCENTRICITY":0.0001826,"INCLINATION":87.9191,"RA_OF_ASC_NODE":285.4326,"ARG_OF_PERICENTER":97.1187,"MEAN_ANOMALY":263.0154,"EPHEMERIS_TYPE":0,"CLASSIFICATION_TYPE":"U","NORAD_CAT_ID":54647,"ELEMENT_SET_NO":999,"REV_AT_EPOCH":14405,"BSTAR":9.0771e-5,"MEAN_MOTION_DOT":5.1e-7,"MEAN_MOTION_DDOT":0},{"OBJECT_NAME":"ONEWEB-0580","OBJECT_ID":"2022-166G","EPOCH":"2025-11-21T09:03:35.404704","MEAN_MOTION":13.21825439,"ECCENTRICITY":0.0001636,"INCLINATION":87.9194,"RA_OF_ASC_NODE":285.4364,"ARG_OF_PERICENTER":90.7998,"MEAN_ANOMALY":269.3323,"EPHEMERIS_TYPE":0,"CLASSIFICATION_TYPE":"U","NORAD_CAT_ID":54648,"ELEMENT_SET_NO":999,"REV_AT_EPOCH":14409,"BSTAR":-0.00075853,"MEAN_MOTION_DOT":-3.0e-6,"MEAN_MOTION_DDOT":0},{"OBJECT_NAME":"ONEWEB-0582","OBJECT_ID":"2022-166H","EPOCH":"2025-11-21T10:05:11.710752","MEAN_MOTION":13.21829092,"ECCENTRICITY":0.0001547,"INCLINATION":87.9193,"RA_OF_ASC_NODE":285.421,"ARG_OF_PERICENTER":97.0486,"MEAN_ANOMALY":263.0824,"EPHEMERIS_TYPE":0,"CLASSIFICATION_TYPE":"U","NORAD_CAT_ID":54649,"ELEMENT_SET_NO":999,"REV_AT_EPOCH":14407,"BSTAR":-4.1535e-5,"MEAN_MOTION_DOT":-4.0e-8,"MEAN_MOTION_DDOT":0},{"OBJECT_NAME":"ONEWEB-0583","OBJECT_ID":"2022-166J","EPOCH":"2025-11-21T10:21:47.145024","MEAN_MOTION":13.21829136,"ECCENTRICITY":0.0001861,"INCLINATION":87.9184,"RA_OF_ASC_NODE":285.4447,"ARG_OF_PERICENTER":88.536,"MEAN_ANOMALY":271.5987,"EPHEMERIS_TYPE":0,"CLASSIFICATION_TYPE":"U","NORAD_CAT_ID":54650,"ELEMENT_SET_NO":999,"REV_AT_EPOCH":14408,"BSTAR":0.0002083,"MEAN_MOTION_DOT":9.9e-7,"MEAN_MOTION_DDOT":0},{"OBJECT_NAME":"ONEWEB-0584","OBJECT_ID":"2022-166K","EPOCH":"2025-11-21T10:50:14.424576","MEAN_MOTION":13.21827551,"ECCENTRICITY":0.0001544,"INCLINATION":87.9195,"RA_OF_ASC_NODE":285.4258,"ARG_OF_PERICENTER":88.2957,"MEAN_ANOMALY":271.8354,"EPHEMERIS_TYPE":0,"CLASSIFICATION_TYPE":"U","NORAD_CAT_ID":54651,"ELEMENT_SET_NO":999,"REV_AT_EPOCH":14407,"BSTAR":0.00018765,"MEAN_MOTION_DOT":9.1e-7,"MEAN_MOTION_DDOT":0},{"OBJECT_NAME":"ONEWEB-0585","OBJECT_ID":"2022-166L","EPOCH":"2025-11-21T09:36:47.831040","MEAN_MOTION":13.21825473,"ECCENTRICITY":0.0001948,"INCLINATION":87.9191,"RA_OF_ASC_NODE":285.4208,"ARG_OF_PERICENTER":78.6529,"MEAN_ANOMALY":281.4824,"EPHEMERIS_TYPE":0,"CLASSIFICATION_TYPE":"U","NORAD_CAT_ID":54652,"ELEMENT_SET_NO":999,"REV_AT_EPOCH":14407,"BSTAR":1.3196e-5,"MEAN_MOTION_DOT":1.8e-7,"MEAN_MOTION_DDOT":0},{"OBJECT_NAME":"ONEWEB-0586","OBJECT_ID":"2022-166M","EPOCH":"2025-11-21T09:55:43.813920","MEAN_MOTION":13.2182336,"ECCENTRICITY":0.0001791,"INCLINATION":87.919,"RA_OF_ASC_NODE":285.4436,"ARG_OF_PERICENTER":87.278,"MEAN_ANOMALY":272.8559,"EPHEMERIS_TYPE":0,"CLASSIFICATION_TYPE":"U","NORAD_CAT_ID":54653,"ELEMENT_SET_NO":999,"REV_AT_EPOCH":14407,"BSTAR":-9.7449e-5,"MEAN_MOTION_DOT":-2.7e-7,"MEAN_MOTION_DDOT":0},{"OBJECT_NAME":"ONEWEB-0587","OBJECT_ID":"2022-166N","EPOCH":"2025-11-21T10:09:56.742624","MEAN_MOTION":13.21824348,"ECCENTRICITY":0.0002103,"INCLINATION":87.9198,"RA_OF_ASC_NODE":285.3955,"ARG_OF_PERICENTER":73.1685,"MEAN_ANOMALY":286.9679,"EPHEMERIS_TYPE":0,"CLASSIFICATION_TYPE":"U","NORAD_CAT_ID":54654,"ELEMENT_SET_NO":999,"REV_AT_EPOCH":14423,"BSTAR":-8.2542e-6,"MEAN_MOTION_DOT":1.0e-7,"MEAN_MOTION_DDOT":0},{"OBJECT_NAME":"ONEWEB-0589","OBJECT_ID":"2022-166P","EPOCH":"2025-11-21T09:51:00.442656","MEAN_MOTION":13.21825326,"ECCENTRICITY":0.0001209,"INCLINATION":87.9188,"RA_OF_ASC_NODE":285.4351,"ARG_OF_PERICENTER":105.9871,"MEAN_ANOMALY":254.1396,"EPHEMERIS_TYPE":0,"CLASSIFICATION_TYPE":"U","NORAD_CAT_ID":54655,"ELEMENT_SET_NO":999,"REV_AT_EPOCH":14409,"BSTAR":-5.055e-6,"MEAN_MOTION_DOT":1.1e-7,"MEAN_MOTION_DDOT":0},{"OBJECT_NAME":"ONEWEB-0590","OBJECT_ID":"2022-166Q","EPOCH":"2025-11-21T10:26:20.289120","MEAN_MOTION":13.21828541,"ECCENTRICITY":0.000161,"INCLINATION":87.919,"RA_OF_ASC_NODE":285.4066,"ARG_OF_PERICENTER":69.699,"MEAN_ANOMALY":290.4317,"EPHEMERIS_TYPE":0,"CLASSIFICATION_TYPE":"U","NORAD_CAT_ID":54656,"ELEMENT_SET_NO":999,"REV_AT_EPOCH":14408,"BSTAR":-4.7842e-6,"MEAN_MOTION_DOT":1.1e-7,"MEAN_MOTION_DDOT":0},{"OBJECT_NAME":"ONEWEB-0591","OBJECT_ID":"2022-166R","EPOCH":"2025-11-21T10:43:08.266944","MEAN_MOTION":13.21827772,"ECCENTRICITY":0.0001765,"INCLINATION":87.9192,"RA_OF_ASC_NODE":285.428,"ARG_OF_PERICENTER":81.745,"MEAN_ANOMALY":278.3884,"EPHEMERIS_TYPE":0,"CLASSIFICATION_TYPE":"U","NORAD_CAT_ID":54657,"ELEMENT_SET_NO":999,"REV_AT_EPOCH":14411,"BSTAR":0.00015854,"MEAN_MOTION_DOT":7.9e-7,"MEAN_MOTION_DDOT":0},{"OBJECT_NAME":"ONEWEB-0592","OBJECT_ID":"2022-166S","EPOCH":"2025-11-21T10:47:51.692640","MEAN_MOTION":13.21828709,"ECCENTRICITY":0.0001741,"INCLINATION":87.9199,"RA_OF_ASC_NODE":285.3885,"ARG_OF_PERICENTER":82.3295,"MEAN_ANOMALY":277.8037,"EPHEMERIS_TYPE":0,"CLASSIFICATION_TYPE":"U","NORAD_CAT_ID":54658,"ELEMENT_SET_NO":999,"REV_AT_EPOCH":14399,"BSTAR":0.00026852,"MEAN_MOTION_DOT":1.24e-6,"MEAN_MOTION_DDOT":0}]
