ONEWEB-0527             
1 54642U 22166A   25325.45977881  .00000053  00000+0  96694-4 0  9999
2 54642  87.9192 285.4347 0001931  81.2426 278.8926 13.21825967144093
ONEWEB-0528             
1 54643U 22166B   25325.39068333  .00000019  00000+0  14611-4 0  9997
2 54643  87.9194 285.4523 0001976  81.5171 278.6187 13.21826634144090
ONEWEB-0539             
1 54644U 22166C   25325.42851522  .00000013  00000+0  11038-5 0  9997
2 54644  87.9190 285.4106 0001907  88.4933 271.6419 13.21824617144090
ONEWEB-0540             
1 54645U 22166D   25325.43523212 -.00000015  00000+0 -66803-4 0  9994
2 54645  87.9189 285.4475 0001858  88.5496 271.5851 13.21827748144084
ONEWEB-0542             
1 54646U 22166E   25325.43839043 -.00000020  00000+0 -81127-4 0  9999
2 54646  87.9188 285.4057 0001726  93.4058 266.7273 13.21828226144090
ONEWEB-0545             
1 54647U 22166F   25325.40383301  .00000051  00000+0  90771-4 0  9995
2 54647  87.9191 285.4326 0001826  97.1187 263.0154 13.21827973144051
ONEWEB-0580             
1 54648U 22166G   25325.37749311 -.00000300  00000+0 -75853-3 0  9991
2 54648  87.9194 285.4364 0001636  90.7998 269.3323 13.21825439144091
ONEWEB-0582             
1 54649U 22166H   25325.42027443 -.00000004  00000+0 -41535-4 0  9995
2 54649  87.9193 285.4210 0001547  97.0486 263.0824 13.21829092144078
ONEWEB-0583             
1 54650U 22166J   25325.43179566  .00000099  00000+0  20830-3 0  9998
2 54650  87.9184 285.4447 0001861  88.5360 271.5987 13.21829136144081
ONEWEB-0584             
1 54651U 22166K   25325.45155584  .00000091  00000+0  18765-3 0  9991
2 54651  87.9195 285.4258 0001544  88.2957 271.8354 13.21827551144070
ONEWEB-0585             
1 54652U 22166L   25325.40055360  .00000018  00000+0  13196-4 0  9991
2 54652  87.9191 285.4208 0001948  78.6529 281.4824 13.21825473144078
ONEWEB-0586             
1 54653U 22166M   25325.41370155 -.00000027  00000+0 -97449-4 0  9990
2 54653  87.9190 285.4436 0001791  87.2780 272.8559 13.21823360144074
ONEWEB-0587             
1 54654U 22166N   25325.42357341  .00000010  00000+0 -82542-5 0  9994
2 54654  87.9198 285.3955 0002103  73.1685 286.9679 13.21824348144238
ONEWEB-0589             
1 54655U 22166P   25325.41042179  .00000011  00000+0 -50550-5 0  9999
2 54655  87.9188 285.4351 0001209 105.9871 254.1396 13.21825326144090
ONEWEB-0590             
1 54656U 22166Q   25325.43495705  .00000011  00000+0 -47842-5 0  9999
2 54656  87.9190 285.4066 0001610  69.6990 290.4317 13.21828541144088
ONEWEB-0591             
1 54657U 22166R   25325.44662346  .00000079  00000+0  15854-3 0  9997
2 54657  87.9192 285.4280 0001765  81.7450 278.3884 13.21827772144119
ONEWEB-0592             
1 54658U 22166S   25325.44990385  .00000124  00000+0  26852-3 0  9996
2 54658  87.9199 285.3885 0001741  82.3295 277.8037 13.21828709143995
